[{"OBJECT_NAME":"STARLINK-5151","OBJECT_ID":"2022-136R","EPOCH":"2026-03-09T22:37:01.667424","MEAN_MOTION":15.08833331,"ECCENTRICITY":0.00011122,"INCLINATION":53.2171,"RA_OF_ASC_NODE":342.8858,"ARG_OF_PERICENTER":86.3379,"MEAN_ANOMALY":273.774,"EPHEMERIS_TYPE":0,"CLASSIFICATION_TYPE":"U","NORAD_CAT_ID":54066,"ELEMENT_SET_NO":999,"REV_AT_EPOCH":18688,"BSTAR":5.9404375e-5,"MEAN_MOTION_DOT":6.58e-6,"MEAN_MOTION_DDOT":0},{"OBJECT_NAME":"RAPIDEYE 3","OBJECT_ID":"2008-040D","EPOCH":"2026-03-09T19:34:21.496512","MEAN_MOTION":15.06489596,"ECCENTRICITY":0.00114187,"INCLINATION":97.3959,"RA_OF_ASC_NODE":102.9968,"ARG_OF_PERICENTER":27.1842,"MEAN_ANOMALY":332.9981,"EPHEMERIS_TYPE":0,"CLASSIFICATION_TYPE":"U","NORAD_CAT_ID":33315,"ELEMENT_SET_NO":999,"REV_AT_EPOCH":95131,"BSTAR":0.00019030529,"MEAN_MOTION_DOT":2.754e-5,"MEAN_MOTION_DDOT":0}]
